HST                     
1 20580U 90037B   26166.96968565  .00005371  00000+0  16812-3 0  9995
2 20580  28.4719  88.8951 0001862 130.1338 229.9421 15.30734903788381
POLAR                   
1 23802U 96013A   26166.49652468  .00000145  00000+0  00000+0 0  9997
2 23802  79.8518 227.0721 6468777 209.1373  89.7305  1.29846141144834
SWAS                    
1 25560U 98071A   26166.88926737  .00002684  00000+0  17292-3 0  9997
2 25560  69.8952 230.8665 0008679 261.4216  98.5965 15.09620380497074
CXO                     
1 25867U 99040B   26169.37713324  .00000529  00000+0  00000+0 0  9998
2 25867  56.2189 116.5542 7835469 310.3049   0.1821  0.37804062 17322
XMM-NEWTON              
1 25989U 99066A   26167.35230823  .00000036  00000+0  00000+0 0  9998
2 25989  64.4922 282.9960 4674559  64.9442   0.1261  0.50126459 23004
TERRA                   
1 25994U 99068A   26166.91984186  .00000303  00000+0  70748-4 0  9993
2 25994  97.9457 216.5163 0001476 193.9796 216.8291 14.61102090409420
CLUSTER II-FM7 (SAMBA)  
1 26410U 00041A   26168.13893488  .00013373  00000+0  00000+0 0  9990
2 26410 149.9159  50.9864 9054007 268.1291 359.6411  0.44868040 20307
CLUSTER II-FM8 (TANGO)  
1 26464U 00045B   26166.18659913  .00011723  00000+0  00000+0 0  9996
2 26464 150.1471  51.6871 9056658 268.6526   2.8141  0.44404213 20308
ODIN                    
1 26702U 01007A   26166.63365653  .00156949  00000+0  10266-2 0  9993
2 26702  97.3827 207.4763 0006786 144.7852 215.3863 15.75326927389153
TIMED                   
1 26998U 01055B   26166.67007470  .00000939  00000+0  88797-4 0  9990
2 26998  74.0674 238.0731 0001039 337.9723  22.1417 14.95292160330591
CORIOLIS                
1 27640U 03001A   26166.92880995  .00000077  00000+0  56646-4 0  9998
2 27640  98.7125 173.8328 0013303 212.5998 147.4358 14.19944483214041
SORCE                   
1 27651U 03004A   26166.74486088  .00002322  00000+0  17691-3 0  9999
2 27651  39.9909 269.9075 0016643  38.2002 321.9968 15.03706925271685
MOST                    
1 27843U 03031D   26166.94414373  .00000045  00000+0  40930-4 0  9995
2 27843  98.7044 174.6875 0008720 254.4201 105.6014 14.21322253190531
SCISAT 1                
1 27858U 03036A   26166.73998301  .00000404  00000+0  56243-4 0  9994
2 27858  73.9284 174.2183 0008581 243.9070 116.1224 14.81446313231231
SWIFT                   
1 28485U 04047A   26166.40597521  .00042527  00000+0  35480-3 0  9998
2 28485  20.5516 198.6409 0001619 255.9834 104.0432 15.68175033186589
HINODE (SOLAR-B)        
1 29479U 06041A   26166.61833850  .00000574  00000+0  10707-3 0  9990
2 29479  98.0548 182.7941 0016056 295.1724  64.7816 14.68621157 54649
SHIJIAN-6 02A (SJ-6 02A)
1 29505U 06046A   26166.97019885  .00004888  00000+0  25132-3 0  9998
2 29505  97.6361 208.0267 0004349 127.0980 233.0650 15.16931135 72088
SHIJIAN-6 02B (SJ-6 02B)
1 29506U 06046B   26166.88009993  .00001109  00000+0  90593-4 0  9995
2 29506  97.7158 195.9466 0015313  64.3552 295.9252 15.01374306 70549
FGRST (GLAST)           
1 33053U 08029A   26166.52614450  .00002502  00000+0  87010-4 0  9999
2 33053  25.5806 216.0172 0007642 308.9336  51.0521 15.23940833995580
SDO                     
1 36395U 10005A   26165.43714222 -.00000094  00000+0  00000+0 0  9999
2 36395  34.6460  86.3840 0001714  49.5303 182.1298  1.00269990 60033
CRYOSAT 2               
1 36508U 10013A   26166.90986476  .00000187  00000+0  45582-4 0  9990
2 36508  92.0354 276.9910 0002160  89.0686 271.0769 14.51898736857898
X-SAT                   
1 37389U 11015C   26166.96182931  .00000154  00000+0  83203-4 0  9997
2 37389  98.3503 144.0434 0014006 352.1679   7.9280 14.25206346787500
GCOM-W1 (SHIZUKU)       
1 38337U 12025A   26166.79663631  .00000383  00000+0  95042-4 0  9993
2 38337  98.2021 107.3733 0001801  76.0223 344.5777 14.57123501748838
NUSTAR                  
1 38358U 12031A   26166.91668981  .00005712  00000+0  29967-3 0  9993
2 38358   6.0272  43.6545 0006972  90.6024 278.0551 15.08790648  1308
NEOSSAT                 
1 39089U 13009D   26166.74609784  .00000117  00000+0  55312-4 0  9996
2 39089  98.4176 346.8130 0009856 248.5780 111.4355 14.35825950696534
BRITE-AUSTRIA           
1 39091U 13009F   26166.74544157  .00000140  00000+0  62283-4 0  9992
2 39091  98.3994 346.2168 0009094 241.3602 118.6671 14.36541598696845
IRIS                    
1 39197U 13033A   26166.81806117  .00000864  00000+0  10511-3 0  9990
2 39197  97.9330   6.0994 0023655 326.4831  33.4886 14.85882933700176
HISAKI (SPRINT-A)       
1 39253U 13049A   26166.87673530  .00000124  00000+0  82855-4 0  9997
2 39253  29.7186 226.6759 0136867   6.2272 353.9971 13.55544631631244
CASSIOPE                
1 39265U 13055A   26166.91551173  .00044378 -51379-6  48537-3 0  9990
2 39265  80.9155  68.2665 0293074  66.7051 296.4736 15.25081364667470
STSAT-3                 
1 39422U 13066G   26166.91423116  .00003413  00000+0  25955-3 0  9993
2 39422  97.6219 136.8228 0011155  48.5216 311.6965 15.02752304684014
